start=new Date('2021-11-24T00:00:00.000Z').valueOf();
sats=[{"LAUNCH_DATE":"2020-04-22","OBJECT_NAME":"STARLINK-1294","RA_OF_ASC_NODE":"281.6166","CLASSIFICATION_TYPE":"U","MEAN_MOTION":"15.06399415","PERIAPSIS":"545.920","SEMIMAJOR_AXIS":"6925.350","FILE":"3222563","NORAD_CAT_ID":"45551","ECCENTRICITY":"0.00018700","MEAN_ANOMALY":"296.1914","REF_FRAME":"TEME","ARG_OF_PERICENTER":"63.9267","TLE_LINE1":"1 45551U 20025W   21327.58915484  .00000172  00000-0  30464-4 0  9999","OBJECT_ID":"2020-025W","REV_AT_EPOCH":"8917","EPHEMERIS_TYPE":"0","CENTER_NAME":"EARTH","MEAN_MOTION_DDOT":"0.0000000000000","BSTAR":"0.00003046400000","APOAPSIS":"548.510","EPOCH":"2021-11-23T14:08:22.978176","PERIOD":"95.592","ELEMENT_SET_NO":"999","COUNTRY_CODE":"US","SITE":"AFETR","TIME_SYSTEM":"UTC","MEAN_MOTION_DOT":"0.00000172","TLE_LINE2":"2 45551  53.0539 281.6166 0001870  63.9267 296.1914 15.06399415 89176","MEAN_ELEMENT_THEORY":"SGP4","OBJECT_TYPE":"PAYLOAD","GP_ID":"190361773","RCS_SIZE":"LARGE","DECAY_DATE":null,"INCLINATION":"53.0539"},{"DECAY_DATE":null,"INCLINATION":"53.0551","RCS_SIZE":"LARGE","GP_ID":"190362524","OBJECT_TYPE":"PAYLOAD","MEAN_MOTION_DOT":"0.00003401","TLE_LINE2":"2 45552  53.0551 269.8691 0001523 117.2357 242.8802 15.41324525 89353","MEAN_ELEMENT_THEORY":"SGP4","SITE":"AFETR","COUNTRY_CODE":"US","TIME_SYSTEM":"UTC","PERIOD":"93.426","ELEMENT_SET_NO":"999","EPOCH":"2021-11-23T20:15:02.768256","CENTER_NAME":"EARTH","APOAPSIS":"443.240","BSTAR":"0.00008995700000","MEAN_MOTION_DDOT":"0.0000000000000","OBJECT_ID":"2020-025X","TLE_LINE1":"1 45552U 20025X   21327.84378204  .00003401  00000-0  89957-4 0  9991","EPHEMERIS_TYPE":"0","REV_AT_EPOCH":"8935","ARG_OF_PERICENTER":"117.2357","MEAN_ANOMALY":"242.8802","REF_FRAME":"TEME","ECCENTRICITY":"0.00015230","FILE":"3222563","NORAD_CAT_ID":"45552","SEMIMAJOR_AXIS":"6820.336","PERIAPSIS":"441.162","OBJECT_NAME":"STARLINK-1322","RA_OF_ASC_NODE":"269.8691","MEAN_MOTION":"15.41324525","CLASSIFICATION_TYPE":"U","LAUNCH_DATE":"2020-04-22"},{"MEAN_ANOMALY":"289.5963","REF_FRAME":"TEME","ARG_OF_PERICENTER":"70.5214","OBJECT_ID":"2020-025Y","TLE_LINE1":"1 45553U 20025Y   21327.60020806  .00000107  00000-0  26091-4 0  9998","REV_AT_EPOCH":"8788","EPHEMERIS_TYPE":"0","CENTER_NAME":"EARTH","APOAPSIS":"548.416","BSTAR":"0.00002609100000","MEAN_MOTION_DDOT":"0.0000000000000","LAUNCH_DATE":"2020-04-22","OBJECT_NAME":"STARLINK-1323","RA_OF_ASC_NODE":"281.5662","MEAN_MOTION":"15.06401920","CLASSIFICATION_TYPE":"U","SEMIMAJOR_AXIS":"6925.343","PERIAPSIS":"545.999","ECCENTRICITY":"0.00017450","FILE":"3222563","NORAD_CAT_ID":"45553","GP_ID":"190361272","OBJECT_TYPE":"PAYLOAD","INCLINATION":"53.0554","DECAY_DATE":null,"RCS_SIZE":"LARGE","EPOCH":"2021-11-23T14:24:17.976384","PERIOD":"95.592","ELEMENT_SET_NO":"999","SITE":"AFETR","COUNTRY_CODE":"US","TIME_SYSTEM":"UTC","TLE_LINE2":"2 45553  53.0554 281.5662 0001745  70.5214 289.5963 15.06401920 87883","MEAN_MOTION_DOT":"0.00000107","MEAN_ELEMENT_THEORY":"SGP4"},{"CLASSIFICATION_TYPE":"U","MEAN_MOTION":"15.06402505","RA_OF_ASC_NODE":"281.5991","OBJECT_NAME":"STARLINK-1325","LAUNCH_DATE":"2020-04-22","NORAD_CAT_ID":"45554","FILE":"3222563","ECCENTRICITY":"0.00018050","PERIAPSIS":"545.956","SEMIMAJOR_AXIS":"6925.341","ARG_OF_PERICENTER":"68.6518","REF_FRAME":"TEME","MEAN_ANOMALY":"291.4664","MEAN_MOTION_DDOT":"0.0000000000000","BSTAR":"0.00004613200000","APOAPSIS":"548.456","CENTER_NAME":"EARTH","REV_AT_EPOCH":"8917","EPHEMERIS_TYPE":"0","TLE_LINE1":"1 45554U 20025Z   21327.59283216  .00000406  00000-0  46132-4 0  9993","OBJECT_ID":"2020-025Z","ELEMENT_SET_NO":"999","PERIOD":"95.592","EPOCH":"2021-11-23T14:13:40.698624","MEAN_ELEMENT_THEORY":"SGP4","TLE_LINE2":"2 45554  53.0533 281.5991 0001805  68.6518 291.4664 15.06402505 89172","MEAN_MOTION_DOT":"0.00000406","TIME_SYSTEM":"UTC","COUNTRY_CODE":"US","SITE":"AFETR","OBJECT_TYPE":"PAYLOAD","GP_ID":"190361522","DECAY_DATE":null,"RCS_SIZE":"LARGE","INCLINATION":"53.0533"},{"OBJECT_TYPE":"PAYLOAD","GP_ID":"190362274","DECAY_DATE":null,"RCS_SIZE":"LARGE","INCLINATION":"53.0532","EPOCH":"2021-11-23T21:18:18.079200","PERIOD":"95.592","ELEMENT_SET_NO":"999","COUNTRY_CODE":"US","SITE":"AFETR","TIME_SYSTEM":"UTC","TLE_LINE2":"2 45555  53.0532 280.2749 0002118  58.5642 301.5554 15.06404274 89214","MEAN_MOTION_DOT":"0.00000096","MEAN_ELEMENT_THEORY":"SGP4","MEAN_ANOMALY":"301.5554","REF_FRAME":"TEME","ARG_OF_PERICENTER":"58.5642","TLE_LINE1":"1 45555U 20025AA  21327.88770925  .00000096  00000-0  25368-4 0  9997","OBJECT_ID":"2020-025AA","EPHEMERIS_TYPE":"0","REV_AT_EPOCH":"8921","CENTER_NAME":"EARTH","BSTAR":"0.00002536800000","MEAN_MOTION_DDOT":"0.0000000000000","APOAPSIS":"548.667","LAUNCH_DATE":"2020-04-22","OBJECT_NAME":"STARLINK-1327","RA_OF_ASC_NODE":"280.2749","CLASSIFICATION_TYPE":"U","MEAN_MOTION":"15.06404274","PERIAPSIS":"545.734","SEMIMAJOR_AXIS":"6925.335","FILE":"3222563","NORAD_CAT_ID":"45555","ECCENTRICITY":"0.00021180"},{"ARG_OF_PERICENTER":"62.9501","MEAN_ANOMALY":"297.1671","REF_FRAME":"TEME","CENTER_NAME":"EARTH","MEAN_MOTION_DDOT":"0.0000000000000","BSTAR":"0.00002878400000","APOAPSIS":"548.446","TLE_LINE1":"1 45556U 20025AB  21327.59652176  .00000147  00000-0  28784-4 0  9995","OBJECT_ID":"2020-025AB","REV_AT_EPOCH":"8917","EPHEMERIS_TYPE":"0","RA_OF_ASC_NODE":"281.5834","OBJECT_NAME":"STARLINK-1334","CLASSIFICATION_TYPE":"U","MEAN_MOTION":"15.06401734","LAUNCH_DATE":"2020-04-22","NORAD_CAT_ID":"45556","FILE":"3222563","ECCENTRICITY":"0.00017880","PERIAPSIS":"545.970","SEMIMAJOR_AXIS":"6925.343","OBJECT_TYPE":"PAYLOAD","GP_ID":"190362024","INCLINATION":"53.0548","DECAY_DATE":null,"RCS_SIZE":"LARGE","PERIOD":"95.592","ELEMENT_SET_NO":"999","EPOCH":"2021-11-23T14:18:59.480064","MEAN_MOTION_DOT":"0.00000147","TLE_LINE2":"2 45556  53.0548 281.5834 0001788  62.9501 297.1671 15.06401734 89179","MEAN_ELEMENT_THEORY":"SGP4","COUNTRY_CODE":"US","SITE":"AFETR","TIME_SYSTEM":"UTC"},{"OBJECT_TYPE":"PAYLOAD","GP_ID":"190335982","DECAY_DATE":null,"INCLINATION":"53.0535","RCS_SIZE":"LARGE","ELEMENT_SET_NO":"999","PERIOD":"95.593","EPOCH":"2021-11-23T06:31:55.275456","MEAN_ELEMENT_THEORY":"SGP4","TLE_LINE2":"2 45557  53.0535 283.0359 0001827  65.9421 294.1759 15.06393841 89121","MEAN_MOTION_DOT":"-0.00000231","TIME_SYSTEM":"UTC","COUNTRY_CODE":"US","SITE":"AFETR","ARG_OF_PERICENTER":"65.9421","REF_FRAME":"TEME","MEAN_ANOMALY":"294.1759","MEAN_MOTION_DDOT":"0.0000000000000","BSTAR":"0.00000338660000","APOAPSIS":"548.498","CENTER_NAME":"EARTH","EPHEMERIS_TYPE":"0","REV_AT_EPOCH":"8912","TLE_LINE1":"1 45557U 20025AC  21327.27216754 -.00000231  00000-0  33866-5 0  9992","OBJECT_ID":"2020-025AC","CLASSIFICATION_TYPE":"U","MEAN_MOTION":"15.06393841","RA_OF_ASC_NODE":"283.0359","OBJECT_NAME":"STARLINK-1336","LAUNCH_DATE":"2020-04-22","NORAD_CAT_ID":"45557","FILE":"3222418","ECCENTRICITY":"0.00018270","PERIAPSIS":"545.967","SEMIMAJOR_AXIS":"6925.367"},{"LAUNCH_DATE":"2020-04-22","MEAN_MOTION":"15.06404071","CLASSIFICATION_TYPE":"U","OBJECT_NAME":"STARLINK-1342","RA_OF_ASC_NODE":"280.2069","SEMIMAJOR_AXIS":"6925.336","PERIAPSIS":"545.832","ECCENTRICITY":"0.00019770","FILE":"3222563","NORAD_CAT_ID":"45558","REF_FRAME":"TEME","MEAN_ANOMALY":"299.0044","ARG_OF_PERICENTER":"61.1143","REV_AT_EPOCH":"8921","EPHEMERIS_TYPE":"0","OBJECT_ID":"2020-025AD","TLE_LINE1":"1 45558U 20025AD  21327.90247310 -.00000073  00000-0  13997-4 0  9991","APOAPSIS":"548.570","MEAN_MOTION_DDOT":"0.0000000000000","BSTAR":"0.00001399700000","CENTER_NAME":"EARTH","EPOCH":"2021-11-23T21:39:33.675840","ELEMENT_SET_NO":"999","PERIOD":"95.592","TIME_SYSTEM":"UTC","SITE":"AFETR","COUNTRY_CODE":"US","MEAN_ELEMENT_THEORY":"SGP4","MEAN_MOTION_DOT":"-0.00000073","TLE_LINE2":"2 45558  53.0546 280.2069 0001977  61.1143 299.0044 15.06404071 89215","GP_ID":"190361022","OBJECT_TYPE":"PAYLOAD","RCS_SIZE":"LARGE","DECAY_DATE":null,"INCLINATION":"53.0546"},{"OBJECT_NAME":"STARLINK-1344","RA_OF_ASC_NODE":"281.5233","MEAN_MOTION":"15.06403468","CLASSIFICATION_TYPE":"U","LAUNCH_DATE":"2020-04-22","ECCENTRICITY":"0.00018580","NORAD_CAT_ID":"45559","FILE":"3222563","SEMIMAJOR_AXIS":"6925.338","PERIAPSIS":"545.916","ARG_OF_PERICENTER":"64.8691","MEAN_ANOMALY":"295.2490","REF_FRAME":"TEME","CENTER_NAME":"EARTH","APOAPSIS":"548.490","BSTAR":"0.00001389400000","MEAN_MOTION_DDOT":"0.0000000000000","OBJECT_ID":"2020-025AE","TLE_LINE1":"1 45559U 20025AE  21327.60757702 -.00000075  00000-0  13894-4 0  9998","EPHEMERIS_TYPE":"0","REV_AT_EPOCH":"8917","PERIOD":"95.592","ELEMENT_SET_NO":"999","EPOCH":"2021-11-23T14:34:54.654528","MEAN_MOTION_DOT":"-0.00000075","TLE_LINE2":"2 45559  53.0543 281.5233 0001858  64.8691 295.2490 15.06403468 89173","MEAN_ELEMENT_THEORY":"SGP4","SITE":"AFETR","COUNTRY_CODE":"US","TIME_SYSTEM":"UTC","GP_ID":"190361774","OBJECT_TYPE":"PAYLOAD","DECAY_DATE":null,"INCLINATION":"53.0543","RCS_SIZE":"LARGE"},{"COUNTRY_CODE":"US","SITE":"AFETR","TIME_SYSTEM":"UTC","TLE_LINE2":"2 45560  53.0544 270.4000 0001870  66.9836 293.1350 15.06403112 89351","MEAN_MOTION_DOT":"0.00000729","MEAN_ELEMENT_THEORY":"SGP4","EPOCH":"2021-11-23T20:37:10.438176","PERIOD":"95.592","ELEMENT_SET_NO":"999","DECAY_DATE":null,"RCS_SIZE":"LARGE","INCLINATION":"53.0544","OBJECT_TYPE":"PAYLOAD","GP_ID":"190362525","PERIAPSIS":"545.909","SEMIMAJOR_AXIS":"6925.339","FILE":"3222563","NORAD_CAT_ID":"45560","ECCENTRICITY":"0.00018700","LAUNCH_DATE":"2020-04-22","RA_OF_ASC_NODE":"270.4000","OBJECT_NAME":"STARLINK-1346","CLASSIFICATION_TYPE":"U","MEAN_MOTION":"15.06403112","TLE_LINE1":"1 45560U 20025AF  21327.85914859  .00000729  00000-0  67834-4 0  9993","OBJECT_ID":"2020-025AF","REV_AT_EPOCH":"8935","EPHEMERIS_TYPE":"0","CENTER_NAME":"EARTH","MEAN_MOTION_DDOT":"0.0000000000000","BSTAR":"0.00006783400000","APOAPSIS":"548.499","MEAN_ANOMALY":"293.1350","REF_FRAME":"TEME","ARG_OF_PERICENTER":"66.9836"}];
